[{"OBJECT_NAME":"STARLINK-36219","OBJECT_ID":"2025-299Z","EPOCH":"2026-03-09T22:00:01.999584","MEAN_MOTION":15.28429485,"ECCENTRICITY":0.00016919,"INCLINATION":43.0008,"RA_OF_ASC_NODE":167.7206,"ARG_OF_PERICENTER":283.4475,"MEAN_ANOMALY":335.6391,"EPHEMERIS_TYPE":0,"CLASSIFICATION_TYPE":"U","NORAD_CAT_ID":67125,"ELEMENT_SET_NO":999,"REV_AT_EPOCH":585,"BSTAR":-0.00049968529,"MEAN_MOTION_DOT":-0.0001435,"MEAN_MOTION_DDOT":0},{"OBJECT_NAME":"THORAD AGENA D DEB","OBJECT_ID":"1969-082CP","EPOCH":"2026-03-09T22:51:31.947840","MEAN_MOTION":15.31252047,"ECCENTRICITY":0.00108961,"INCLINATION":69.8927,"RA_OF_ASC_NODE":265.8646,"ARG_OF_PERICENTER":335.0972,"MEAN_ANOMALY":24.9676,"EPHEMERIS_TYPE":0,"CLASSIFICATION_TYPE":"U","NORAD_CAT_ID":4133,"ELEMENT_SET_NO":999,"REV_AT_EPOCH":97550,"BSTAR":0.0018489552,"MEAN_MOTION_DOT":0.00056347,"MEAN_MOTION_DDOT":0}]
